{"type": "FeatureCollection", "features": [{"type": "Feature", "geometry": {"type": "Polygon", "coordinates": [[[124.668173785, 8.419193701000037], [124.59226465200005, 8.28825240100002], [124.70178822700005, 8.156901856000047], [124.88902625600008, 8.126331255000027], [124.88459063700009, 8.160650331000056], [124.84645885400006, 8.200877540000022], [124.73297297800003, 8.255167622000046], [124.668173785, 8.419193701000037]]]}, "properties": {"psgc_province": 1001300000, "psgc_municipality": 1001301000, "province": "Bukidnon", "municipality": "Baungon"}}, {"type": "Feature", "geometry": {"type": "Polygon", "coordinates": [[[125.06281699800002, 7.42703880700003], [124.99592787000006, 7.516446233000067], [124.91419896700008, 7.511356971000053], [124.87545976200012, 7.43607951400003], [125.06281699800002, 7.42703880700003]]]}, "properties": {"psgc_province": 1001300000, "psgc_municipality": 1001302000, "province": "Bukidnon", "municipality": "Damulog"}}, {"type": "Feature", "geometry": {"type": "Polygon", "coordinates": [[[125.05343657200002, 7.536975288000063], [124.94386777400008, 7.630199163000044], [124.94399809800007, 7.601581494000072], [125.05343657200002, 7.536975288000063]]]}, "properties": {"psgc_province": 1001300000, "psgc_municipality": 1001303000, "province": "Bukidnon", "municipality": "Dangcagan"}}, {"type": "Feature", "geometry": {"type": "Polygon", "coordinates": [[[125.03423943100007, 7.702135374000021], [124.87600828800011, 7.773707536000073], [124.86637201700012, 7.632944374000033], [124.93980304800004, 7.630479759000026], [125.052411332, 7.663529611000057], [125.03423943100007, 7.702135374000021]]]}, "properties": {"psgc_province": 1001300000, "psgc_municipality": 1001304000, "province": "Bukidnon", "municipality": "Don Carlos"}}, {"type": "Feature", "geometry": {"type": "Polygon", "coordinates": [[[125.30499249600005, 8.319498902000019], [125.24264004200006, 8.581126923000058], [125.091972703, 8.583274949000044], [125.05284513300012, 8.501703990000067], [124.97474355800011, 8.383452789000046], [124.92140372600012, 8.17837342200005], [124.90916391500002, 8.169272024000062], [124.98473716500007, 8.154040893000058], [125.15416782800003, 8.30879589800003], [125.30499249600005, 8.319498902000019]]]}, "properties": {"psgc_province": 1001300000, "psgc_municipality": 1001305000, "province": "Bukidnon", "municipality": "Impasug-ong"}}, {"type": "Feature", "geometry": {"type": "Polygon", "coordinates": [[[124.93980304800004, 7.630479759000026], [124.86637201700012, 7.632944374000033], [124.82739858400011, 7.556412272000046], [124.87545976200012, 7.43607951400003], [124.91419896700008, 7.511356971000053], [124.94399809800007, 7.601581494000072], [124.94386777400008, 7.630199163000044], [124.93980304800004, 7.630479759000026]]]}, "properties": {"psgc_province": 1001300000, "psgc_municipality": 1001306000, "province": "Bukidnon", "municipality": "Kadingilan"}}, {"type": "Feature", "geometry": {"type": "Polygon", "coordinates": [[[124.69636392600012, 7.898530824000034], [124.62187265100012, 7.875395143000051], [124.80094371000007, 7.628735198000071], [124.77773263300004, 7.799504985000056], [124.69636392600012, 7.898530824000034]]]}, "properties": {"psgc_province": 1001300000, "psgc_municipality": 1001307000, "province": "Bukidnon", "municipality": "Kalilangan"}}, {"type": "Feature", "geometry": {"type": "Polygon", "coordinates": [[[125.05343657200002, 7.536975288000063], [124.94399809800007, 7.601581494000072], [124.91419896700008, 7.511356971000053], [124.99592787000006, 7.516446233000067], [125.06281699800002, 7.42703880700003], [125.08960392400003, 7.451469115000067], [125.05343657200002, 7.536975288000063]]]}, "properties": {"psgc_province": 1001300000, "psgc_municipality": 1001308000, "province": "Bukidnon", "municipality": "Kibawe"}}, {"type": "Feature", "geometry": {"type": "Polygon", "coordinates": [[[125.052411332, 7.663529611000057], [124.93980304800004, 7.630479759000026], [124.94386777400008, 7.630199163000044], [125.05343657200002, 7.536975288000063], [125.08960392400003, 7.451469115000067], [125.26359983300007, 7.506819022000058], [125.30941261700004, 7.629251290000071], [125.0945202580001, 7.59291195700007], [125.052411332, 7.663529611000057]]]}, "properties": {"psgc_province": 1001300000, "psgc_municipality": 1001309000, "province": "Bukidnon", "municipality": "Kitaotao"}}, {"type": "Feature", "geometry": {"type": "Polygon", "coordinates": [[[124.98473716500007, 8.154040893000058], [124.90916391500002, 8.169272024000062], [124.88459063700009, 8.160650331000056], [124.88902625600008, 8.126331255000027], [124.86041732800004, 8.030804221000038], [125.13046210200002, 7.991190050000058], [124.98473716500007, 8.154040893000058]]]}, "properties": {"psgc_province": 1001300000, "psgc_municipality": 1001310000, "province": "Bukidnon", "municipality": "Lantapan"}}, {"type": "Feature", "geometry": {"type": "Polygon", "coordinates": [[[124.84645885400006, 8.200877540000022], [124.79184968700007, 8.425546736000056], [124.668173785, 8.419193701000037], [124.73297297800003, 8.255167622000046], [124.84645885400006, 8.200877540000022]]]}, "properties": {"psgc_province": 1001300000, "psgc_municipality": 1001311000, "province": "Bukidnon", "municipality": "Libona"}}, {"type": "Feature", "geometry": {"type": "Polygon", "coordinates": [[[125.4071085490001, 8.147179916000029], [125.30499249600005, 8.319498902000019], [125.15416782800003, 8.30879589800003], [124.98473716500007, 8.154040893000058], [125.13046210200002, 7.991190050000058], [125.25635913500001, 7.973044129000071], [125.27467000300008, 7.985506346000025], [125.22093161300008, 8.076161610000042], [125.26042712700006, 8.152490732000045], [125.4071085490001, 8.147179916000029]]]}, "properties": {"psgc_province": 1001300000, "psgc_municipality": 1001312000, "province": "Bukidnon", "municipality": "City of Malaybalay"}}, {"type": "Feature", "geometry": {"type": "Polygon", "coordinates": [[[125.091972703, 8.583274949000044], [124.9095479680001, 8.599141823000025], [124.8326646160001, 8.516467929000044], [124.90472389900003, 8.42882151200007], [125.05284513300012, 8.501703990000067], [125.091972703, 8.583274949000044]]]}, "properties": {"psgc_province": 1001300000, "psgc_municipality": 1001313000, "province": "Bukidnon", "municipality": "Malitbog"}}, {"type": "Feature", "geometry": {"type": "Polygon", "coordinates": [[[124.8326646160001, 8.516467929000044], [124.79184968700007, 8.425546736000056], [124.84645885400006, 8.200877540000022], [124.88459063700009, 8.160650331000056], [124.90916391500002, 8.169272024000062], [124.92140372600012, 8.17837342200005], [124.8803029950001, 8.261044054000024], [124.97474355800011, 8.383452789000046], [125.05284513300012, 8.501703990000067], [124.90472389900003, 8.42882151200007], [124.8326646160001, 8.516467929000044]]]}, "properties": {"psgc_province": 1001300000, "psgc_municipality": 1001314000, "province": "Bukidnon", "municipality": "Manolo Fortich"}}, {"type": "Feature", "geometry": {"type": "Polygon", "coordinates": [[[125.081095224, 7.820987788000027], [125.03432397400002, 7.873346883000067], [124.87019329100009, 7.899629067000036], [124.87600828800011, 7.773707536000073], [125.03423943100007, 7.702135374000021], [125.081095224, 7.820987788000027]]]}, "properties": {"psgc_province": 1001300000, "psgc_municipality": 1001315000, "province": "Bukidnon", "municipality": "Maramag"}}, {"type": "Feature", "geometry": {"type": "Polygon", "coordinates": [[[124.87019329100009, 7.899629067000036], [124.85796823600003, 7.955933054000069], [124.69636392600012, 7.898530824000034], [124.77773263300004, 7.799504985000056], [124.80094371000007, 7.628735198000071], [124.82739858400011, 7.556412272000046], [124.86637201700012, 7.632944374000033], [124.87600828800011, 7.773707536000073], [124.87019329100009, 7.899629067000036]]]}, "properties": {"psgc_province": 1001300000, "psgc_municipality": 1001316000, "province": "Bukidnon", "municipality": "Pangantucan"}}, {"type": "Feature", "geometry": {"type": "Polygon", "coordinates": [[[125.30682254400006, 7.807691651000028], [125.081095224, 7.820987788000027], [125.03423943100007, 7.702135374000021], [125.052411332, 7.663529611000057], [125.0945202580001, 7.59291195700007], [125.30941261700004, 7.629251290000071], [125.30092400200009, 7.63728314900004], [125.30682254400006, 7.807691651000028]]]}, "properties": {"psgc_province": 1001300000, "psgc_municipality": 1001317000, "province": "Bukidnon", "municipality": "Quezon"}}, {"type": "Feature", "geometry": {"type": "Polygon", "coordinates": [[[125.38635865800006, 7.98435959900007], [125.27467000300008, 7.985506346000025], [125.25635913500001, 7.973044129000071], [125.30682254400006, 7.807691651000028], [125.30092400200009, 7.63728314900004], [125.42456248600001, 7.622786366000068], [125.44083203100001, 7.743106942000054], [125.38635865800006, 7.98435959900007]]]}, "properties": {"psgc_province": 1001300000, "psgc_municipality": 1001318000, "province": "Bukidnon", "municipality": "San Fernando"}}, {"type": "Feature", "geometry": {"type": "Polygon", "coordinates": [[[124.97474355800011, 8.383452789000046], [124.8803029950001, 8.261044054000024], [124.92140372600012, 8.17837342200005], [124.97474355800011, 8.383452789000046]]]}, "properties": {"psgc_province": 1001300000, "psgc_municipality": 1001319000, "province": "Bukidnon", "municipality": "Sumilao"}}, {"type": "Feature", "geometry": {"type": "Polygon", "coordinates": [[[124.59226465200005, 8.28825240100002], [124.55245870300007, 8.14427602300003], [124.56253066200009, 7.98184142100007], [124.62187265100012, 7.875395143000051], [124.69636392600012, 7.898530824000034], [124.85796823600003, 7.955933054000069], [124.86041732800004, 8.030804221000038], [124.88902625600008, 8.126331255000027], [124.70178822700005, 8.156901856000047], [124.59226465200005, 8.28825240100002]]]}, "properties": {"psgc_province": 1001300000, "psgc_municipality": 1001320000, "province": "Bukidnon", "municipality": "Talakag"}}, {"type": "Feature", "geometry": {"type": "Polygon", "coordinates": [[[125.13046210200002, 7.991190050000058], [124.86041732800004, 8.030804221000038], [124.85796823600003, 7.955933054000069], [124.87019329100009, 7.899629067000036], [125.03432397400002, 7.873346883000067], [125.081095224, 7.820987788000027], [125.30682254400006, 7.807691651000028], [125.25635913500001, 7.973044129000071], [125.13046210200002, 7.991190050000058]]]}, "properties": {"psgc_province": 1001300000, "psgc_municipality": 1001321000, "province": "Bukidnon", "municipality": "City of Valencia"}}, {"type": "Feature", "geometry": {"type": "Polygon", "coordinates": [[[125.4071085490001, 8.147179916000029], [125.26042712700006, 8.152490732000045], [125.22093161300008, 8.076161610000042], [125.27467000300008, 7.985506346000025], [125.38635865800006, 7.98435959900007], [125.4071085490001, 8.147179916000029]]]}, "properties": {"psgc_province": 1001300000, "psgc_municipality": 1001322000, "province": "Bukidnon", "municipality": "Cabanglasan"}}, {"type": "Feature", "geometry": {"type": "Polygon", "coordinates": [[[124.72431625700005, 9.177520021000023], [124.6670049590001, 9.214580088000046], [124.63854520000008, 9.220649500000036], [124.63392342200007, 9.181202865000046], [124.64308451900003, 9.152681581000024], [124.6748940430001, 9.120553559000028], [124.69706773300003, 9.110466757000037], [124.72520169700009, 9.176928560000022], [124.72431625700005, 9.177520021000023]]]}, "properties": {"psgc_province": 1001800000, "psgc_municipality": 1001801000, "province": "Camiguin", "municipality": "Catarman"}}, {"type": "Feature", "geometry": {"type": "Polygon", "coordinates": [[[124.79725052200003, 9.12914391000004], [124.78372982800009, 9.130636442000027], [124.76668950300008, 9.148336450000045], [124.73959057500008, 9.16611035900007], [124.76429428400003, 9.090587602000026], [124.76268767200007, 9.080324517000065], [124.78232158700008, 9.084341985000036], [124.787099194, 9.100104490000033], [124.80507503300011, 9.10986100100007], [124.79725052200003, 9.12914391000004]]]}, "properties": {"psgc_province": 1001800000, "psgc_municipality": 1001802000, "province": "Camiguin", "municipality": "Guinsiliban"}}, {"type": "Feature", "geometry": {"type": "Polygon", "coordinates": [[[124.77942528000004, 9.198305431000053], [124.75961472600011, 9.197505807000024], [124.72431625700005, 9.177520021000023], [124.72520169700009, 9.176928560000022], [124.73959057500008, 9.16611035900007], [124.76668950300008, 9.148336450000045], [124.78372982800009, 9.130636442000027], [124.79725052200003, 9.12914391000004], [124.79832725200002, 9.14633289900007], [124.77942528000004, 9.198305431000053]]]}, "properties": {"psgc_province": 1001800000, "psgc_municipality": 1001803000, "province": "Camiguin", "municipality": "Mahinog"}}, {"type": "Feature", "geometry": {"type": "Polygon", "coordinates": [[[124.77942528000004, 9.198305431000053], [124.73080277800011, 9.249153605000062], [124.70219073300005, 9.258009151000069], [124.66952629800005, 9.250776520000047], [124.64252508800006, 9.231125786000066], [124.63854520000008, 9.220649500000036], [124.6670049590001, 9.214580088000046], [124.72431625700005, 9.177520021000023], [124.75961472600011, 9.197505807000024], [124.77942528000004, 9.198305431000053]]]}, "properties": {"psgc_province": 1001800000, "psgc_municipality": 1001804000, "province": "Camiguin", "municipality": "Mambajao"}}, {"type": "Feature", "geometry": {"type": "Polygon", "coordinates": [[[124.73959057500008, 9.16611035900007], [124.72520169700009, 9.176928560000022], [124.69706773300003, 9.110466757000037], [124.71868264100009, 9.103684390000069], [124.74451065500013, 9.102719074000046], [124.76268767200007, 9.080324517000065], [124.76429428400003, 9.090587602000026], [124.73959057500008, 9.16611035900007]]]}, "properties": {"psgc_province": 1001800000, "psgc_municipality": 1001805000, "province": "Camiguin", "municipality": "Sagay"}}, {"type": "Feature", "geometry": {"type": "Polygon", "coordinates": [[[124.06350689100009, 8.188890442000057], [124.01277525600005, 8.19458664900003], [123.9868881010001, 8.175350309000065], [123.99429158100008, 8.14774966500005], [124.02770378300012, 8.09716639000004], [124.0692727720001, 8.09508156000004], [124.05576894, 8.121349839000061], [124.04993331700007, 8.164288680000027], [124.06350689100009, 8.188890442000057]]]}, "properties": {"psgc_province": 1003500000, "psgc_municipality": 1003501000, "province": "Lanao del Norte", "municipality": "Bacolod"}}, {"type": "Feature", "geometry": {"type": "Polygon", "coordinates": [[[124.24399060300004, 8.154720283000072], [124.21459451800003, 8.173307834000072], [124.19200552000008, 8.157443245000024], [124.19599680000012, 8.133311427000024], [124.19579005800007, 8.120438127000059], [124.18035343900011, 8.096099553000043], [124.21396427800005, 8.071286340000029], [124.2468098710001, 8.070513525000024], [124.24093907200006, 8.099247886000057], [124.26704984700007, 8.115361406000034], [124.24399060300004, 8.154720283000072]]]}, "properties": {"psgc_province": 1003500000, "psgc_municipality": 1003502000, "province": "Lanao del Norte", "municipality": "Baloi"}}, {"type": "Feature", "geometry": {"type": "Polygon", "coordinates": [[[123.78149975200006, 8.044684635000065], [123.75839189300008, 8.013303148000034], [123.81956577000007, 7.974421980000045], [123.81995786800007, 7.912840079000032], [123.827998234, 7.930054237000038], [123.87289951500009, 7.948686525000027], [123.78149975200006, 8.044684635000065]]]}, "properties": {"psgc_province": 1003500000, "psgc_municipality": 1003503000, "province": "Lanao del Norte", "municipality": "Baroy"}}, {"type": "Feature", "geometry": {"type": "Polygon", "coordinates": [[[123.68708972700006, 7.967624800000067], [123.64985195300005, 7.959801629000025], [123.63503351900012, 7.932721924000022], [123.66354640300007, 7.922497570000077], [123.66543018100003, 7.891538716000071], [123.71427010200011, 7.866640484000072], [123.7162320440001, 7.847767136000073], [123.78864001000012, 7.826030298000034], [123.81415077500004, 7.878508332000024], [123.8048094830001, 7.893489406000072], [123.77647547400012, 7.905272244000059], [123.75420124400013, 7.894929797000033], [123.68708972700006, 7.967624800000067]]]}, "properties": {"psgc_province": 1003500000, "psgc_municipality": 1003505000, "province": "Lanao del Norte", "municipality": "Kapatagan"}}, {"type": "Feature", "geometry": {"type": "Polygon", "coordinates": [[[123.78864001000012, 7.826030298000034], [123.7162320440001, 7.847767136000073], [123.71427010200011, 7.866640484000072], [123.66543018100003, 7.891538716000071], [123.63365937400012, 7.868724675000066], [123.62974486800012, 7.825332760000038], [123.69303398500004, 7.812347868000074], [123.71639900100001, 7.793822040000063], [123.77589725100006, 7.714183635000039], [123.82860561100006, 7.696532008000078], [123.85963035300006, 7.724859979000031], [123.851296444, 7.749429303000057], [123.82692407800006, 7.767367294000049], [123.77901940100003, 7.804450519000055], [123.78864001000012, 7.826030298000034]]]}, "properties": {"psgc_province": 1003500000, "psgc_municipality": 1003506000, "province": "Lanao del Norte", "municipality": "Sultan Naga Dimaporo"}}, {"type": "Feature", "geometry": {"type": "Polygon", "coordinates": [[[124.12229263000006, 8.186873840000032], [124.06350689100009, 8.188890442000057], [124.04993331700007, 8.164288680000027], [124.05576894, 8.121349839000061], [124.0692727720001, 8.09508156000004], [124.0865998180001, 8.068972698000037], [124.087308773, 8.126961048000052], [124.13929827800008, 8.149273305000063], [124.13854047300005, 8.151043027000071], [124.12229263000006, 8.186873840000032]]]}, "properties": {"psgc_province": 1003500000, "psgc_municipality": 1003507000, "province": "Lanao del Norte", "municipality": "Kauswagan"}}, {"type": "Feature", "geometry": {"type": "Polygon", "coordinates": [[[123.95191378400013, 8.06603938000006], [123.92126306300008, 8.138267175000069], [123.87429493700007, 8.105583493000042], [123.849117137, 8.11176739500007], [123.8176393670001, 8.079042972000023], [123.85612926600004, 8.062145869000062], [123.90181323700004, 8.06739158600004], [123.93109176600002, 8.05565252200006], [123.95191378400013, 8.06603938000006]]]}, "properties": {"psgc_province": 1003500000, "psgc_municipality": 1003508000, "province": "Lanao del Norte", "municipality": "Kolambugan"}}, {"type": "Feature", "geometry": {"type": "Polygon", "coordinates": [[[123.81995786800007, 7.912840079000032], [123.81956577000007, 7.974421980000045], [123.75839189300008, 8.013303148000034], [123.68708972700006, 7.967624800000067], [123.75420124400013, 7.894929797000033], [123.77647547400012, 7.905272244000059], [123.8048094830001, 7.893489406000072], [123.81817535800008, 7.890998445000036], [123.81995786800007, 7.912840079000032]]]}, "properties": {"psgc_province": 1003500000, "psgc_municipality": 1003509000, "province": "Lanao del Norte", "municipality": "Lala"}}, {"type": "Feature", "geometry": {"type": "Polygon", "coordinates": [[[124.190910313, 8.156920909000062], [124.15458360500008, 8.184873595000058], [124.12229263000006, 8.186873840000032], [124.13854047300005, 8.151043027000071], [124.190910313, 8.156920909000062]]]}, "properties": {"psgc_province": 1003500000, "psgc_municipality": 1003510000, "province": "Lanao del Norte", "municipality": "Linamon"}}, {"type": "Feature", "geometry": {"type": "Polygon", "coordinates": [[[123.90181323700004, 8.06739158600004], [123.85612926600004, 8.062145869000062], [123.86598345400012, 8.005991942000039], [123.91580354100006, 8.007903745000021], [123.93424743600008, 7.976400442000054], [123.96337448200006, 7.978039181000043], [123.98784113600004, 7.935095518000024], [124.00884139200002, 7.946688721000041], [124.00483613800007, 7.95951370700004], [123.97858609900004, 8.010705372000075], [123.93232328200008, 8.033747556000037], [123.90181323700004, 8.06739158600004]]]}, "properties": {"psgc_province": 1003500000, "psgc_municipality": 1003511000, "province": "Lanao del Norte", "municipality": "Magsaysay"}}, {"type": "Feature", "geometry": {"type": "Polygon", "coordinates": [[[123.9868881010001, 8.175350309000065], [123.96225346300004, 8.17144981700005], [123.92126306300008, 8.138267175000069], [123.95191378400013, 8.06603938000006], [124.00821376300009, 8.071150902000058], [124.02770378300012, 8.09716639000004], [123.99429158100008, 8.14774966500005], [123.9868881010001, 8.175350309000065]]]}, "properties": {"psgc_province": 1003500000, "psgc_municipality": 1003512000, "province": "Lanao del Norte", "municipality": "Maigo"}}, {"type": "Feature", "geometry": {"type": "Polygon", "coordinates": [[[124.19599680000012, 8.133311427000024], [124.19200552000008, 8.157443245000024], [124.190910313, 8.156920909000062], [124.13854047300005, 8.151043027000071], [124.13929827800008, 8.149273305000063], [124.15215856500004, 8.082575334000069], [124.18035343900011, 8.096099553000043], [124.19579005800007, 8.120438127000059], [124.19599680000012, 8.133311427000024]]]}, "properties": {"psgc_province": 1003500000, "psgc_municipality": 1003513000, "province": "Lanao del Norte", "municipality": "Matungao"}}, {"type": "Feature", "geometry": {"type": "Polygon", "coordinates": [[[124.0692727720001, 8.09508156000004], [124.02770378300012, 8.09716639000004], [124.00821376300009, 8.071150902000058], [124.0234408240001, 7.987482200000043], [124.00483613800007, 7.95951370700004], [124.00884139200002, 7.946688721000041], [124.10163486000012, 7.964451424000059], [124.09632393400011, 7.986626725000063], [124.10883464400003, 8.029945532000056], [124.10689525400004, 8.051497652000025], [124.0865998180001, 8.068972698000037], [124.0692727720001, 8.09508156000004]]]}, "properties": {"psgc_province": 1003500000, "psgc_municipality": 1003514000, "province": "Lanao del Norte", "municipality": "Munai"}}, {"type": "Feature", "geometry": {"type": "Polygon", "coordinates": [[[123.85963035300006, 7.724859979000031], [123.87027291100003, 7.738132882000059], [123.95932336000011, 7.724984796000059], [124.00162475900004, 7.742659211000047], [123.99551305900002, 7.785322082000048], [124.02390819500012, 7.828601493000061], [123.99573031600005, 7.838661307000053], [123.9675072760001, 7.876557396000066], [123.92831166500002, 7.864518043000032], [123.90574540000011, 7.852665500000058], [123.87552166500006, 7.806159859000047], [123.82692407800006, 7.767367294000049], [123.851296444, 7.749429303000057], [123.85963035300006, 7.724859979000031]]]}, "properties": {"psgc_province": 1003500000, "psgc_municipality": 1003515000, "province": "Lanao del Norte", "municipality": "Nunungan"}}, {"type": "Feature", "geometry": {"type": "Polygon", "coordinates": [[[124.18035343900011, 8.096099553000043], [124.15215856500004, 8.082575334000069], [124.13709854400008, 8.061137010000039], [124.10689525400004, 8.051497652000025], [124.10883464400003, 8.029945532000056], [124.1576227700001, 8.033463527000038], [124.19412436100004, 8.021356720000028], [124.21396427800005, 8.071286340000029], [124.18035343900011, 8.096099553000043]]]}, "properties": {"psgc_province": 1003500000, "psgc_municipality": 1003516000, "province": "Lanao del Norte", "municipality": "Pantao Ragat"}}, {"type": "Feature", "geometry": {"type": "Polygon", "coordinates": [[[124.13929827800008, 8.149273305000063], [124.087308773, 8.126961048000052], [124.0865998180001, 8.068972698000037], [124.10689525400004, 8.051497652000025], [124.13709854400008, 8.061137010000039], [124.15215856500004, 8.082575334000069], [124.13929827800008, 8.149273305000063]]]}, "properties": {"psgc_province": 1003500000, "psgc_municipality": 1003517000, "province": "Lanao del Norte", "municipality": "Poona Piagapo"}}, {"type": "Feature", "geometry": {"type": "Polygon", "coordinates": [[[123.96570479000002, 7.879629500000021], [123.93132347800008, 7.924006010000028], [123.87289951500009, 7.948686525000027], [123.827998234, 7.930054237000038], [123.81995786800007, 7.912840079000032], [123.81817535800008, 7.890998445000036], [123.84813331100008, 7.879061817000033], [123.92831166500002, 7.864518043000032], [123.9675072760001, 7.876557396000066], [123.96570479000002, 7.879629500000021]]]}, "properties": {"psgc_province": 1003500000, "psgc_municipality": 1003518000, "province": "Lanao del Norte", "municipality": "Salvador"}}, {"type": "Feature", "geometry": {"type": "Polygon", "coordinates": [[[123.81817535800008, 7.890998445000036], [123.8048094830001, 7.893489406000072], [123.81415077500004, 7.878508332000024], [123.78864001000012, 7.826030298000034], [123.77901940100003, 7.804450519000055], [123.82692407800006, 7.767367294000049], [123.87552166500006, 7.806159859000047], [123.90574540000011, 7.852665500000058], [123.92831166500002, 7.864518043000032], [123.84813331100008, 7.879061817000033], [123.81817535800008, 7.890998445000036]]]}, "properties": {"psgc_province": 1003500000, "psgc_municipality": 1003519000, "province": "Lanao del Norte", "municipality": "Sapad"}}, {"type": "Feature", "geometry": {"type": "Polygon", "coordinates": [[[124.35001038500003, 8.115383759000055], [124.37347789400009, 8.12725930700003], [124.36935968400007, 8.159682731000032], [124.34716411700005, 8.213383008000049], [124.30957375000003, 8.208096682000077], [124.31229297400012, 8.17525426000003], [124.24399060300004, 8.154720283000072], [124.26704984700007, 8.115361406000034], [124.30012529500004, 8.110320611000077], [124.35001038500003, 8.115383759000055]]]}, "properties": {"psgc_province": 1003500000, "psgc_municipality": 1003520000, "province": "Lanao del Norte", "municipality": "Tagoloan"}}, {"type": "Feature", "geometry": {"type": "Polygon", "coordinates": [[[124.00821376300009, 8.071150902000058], [123.95191378400013, 8.06603938000006], [123.93109176600002, 8.05565252200006], [123.90181323700004, 8.06739158600004], [123.93232328200008, 8.033747556000037], [123.97858609900004, 8.010705372000075], [124.00483613800007, 7.95951370700004], [124.0234408240001, 7.987482200000043], [124.00821376300009, 8.071150902000058]]]}, "properties": {"psgc_province": 1003500000, "psgc_municipality": 1003521000, "province": "Lanao del Norte", "municipality": "Tangcal"}}, {"type": "Feature", "geometry": {"type": "Polygon", "coordinates": [[[123.8176393670001, 8.079042972000023], [123.78149975200006, 8.044684635000065], [123.87289951500009, 7.948686525000027], [123.93132347800008, 7.924006010000028], [123.96570479000002, 7.879629500000021], [124.00188328500008, 7.912551852000035], [123.98784113600004, 7.935095518000024], [123.96337448200006, 7.978039181000043], [123.93424743600008, 7.976400442000054], [123.91580354100006, 8.007903745000021], [123.86598345400012, 8.005991942000039], [123.85612926600004, 8.062145869000062], [123.8176393670001, 8.079042972000023]]]}, "properties": {"psgc_province": 1003500000, "psgc_municipality": 1003522000, "province": "Lanao del Norte", "municipality": "Tubod"}}, {"type": "Feature", "geometry": {"type": "Polygon", "coordinates": [[[124.35001038500003, 8.115383759000055], [124.30012529500004, 8.110320611000077], [124.26704984700007, 8.115361406000034], [124.24093907200006, 8.099247886000057], [124.2468098710001, 8.070513525000024], [124.28842639200002, 8.056473836000064], [124.3318176910001, 8.073890680000034], [124.35001038500003, 8.115383759000055]]]}, "properties": {"psgc_province": 1003500000, "psgc_municipality": 1003523000, "province": "Lanao del Norte", "municipality": "Pantar"}}, {"type": "Feature", "geometry": {"type": "Polygon", "coordinates": [[[123.84322080400013, 8.385349159000043], [123.83484291600007, 8.40527785200004], [123.83619427100007, 8.431295972000044], [123.81510937000006, 8.453769305000037], [123.81239226200013, 8.445130164000036], [123.77733109500004, 8.439730817000054], [123.76660565800012, 8.425230709000061], [123.72461248800005, 8.396808988000032], [123.659343593, 8.380321707000062], [123.66024762400002, 8.347482871000066], [123.69409138500009, 8.350713527000037], [123.76002076700001, 8.364285629000047], [123.78278205100004, 8.374665236000055], [123.84322080400013, 8.385349159000043]]]}, "properties": {"psgc_province": 1004200000, "psgc_municipality": 1004201000, "province": "Misamis Occidental", "municipality": "Aloran"}}, {"type": "Feature", "geometry": {"type": "Polygon", "coordinates": [[[123.65542183500008, 8.634740271000055], [123.60114917200008, 8.657965663000025], [123.58714278700006, 8.627006459000029], [123.58608513500008, 8.61365110200006], [123.60502710600008, 8.566661823000059], [123.60529202600003, 8.555651719000021], [123.62159260600005, 8.572505123000042], [123.65342204800005, 8.593112215000074], [123.65542183500008, 8.634740271000055]]]}, "properties": {"psgc_province": 1004200000, "psgc_municipality": 1004202000, "province": "Misamis Occidental", "municipality": "Baliangao"}}, {"type": "Feature", "geometry": {"type": "Polygon", "coordinates": [[[123.59735905000004, 8.15178031000005], [123.55888240400009, 8.147692712000037], [123.56220165200013, 8.06856651700002], [123.56117891200006, 8.02504065200003], [123.60114335100002, 8.02600075300006], [123.6165929550001, 8.033723301000064], [123.64135000000012, 8.01314], [123.66311061800002, 8.029588007000031], [123.64043337000011, 8.045374042000047], [123.632835009, 8.116626965000023], [123.6244549900001, 8.119127816000061], [123.59735905000004, 8.15178031000005]]]}, "properties": {"psgc_province": 1004200000, "psgc_municipality": 1004203000, "province": "Misamis Occidental", "municipality": "Bonifacio"}}, {"type": "Feature", "geometry": {"type": "Polygon", "coordinates": [[[123.66831585800004, 8.519311266000045], [123.66165401, 8.570910106000042], [123.65342204800005, 8.593112215000074], [123.62159260600005, 8.572505123000042], [123.60529202600003, 8.555651719000021], [123.61948195400011, 8.517292641000038], [123.628932587, 8.506152291000037], [123.63263040700008, 8.462914031000025], [123.6237132030001, 8.438646025000025], [123.63107465900008, 8.41311207900003], [123.63971720200006, 8.419084806000058], [123.64576730600004, 8.452076289000047], [123.653182139, 8.459312991000049], [123.65280723400008, 8.495664123000038], [123.66831585800004, 8.519311266000045]]]}, "properties": {"psgc_province": 1004200000, "psgc_municipality": 1004204000, "province": "Misamis Occidental", "municipality": "Calamba"}}, {"type": "Feature", "geometry": {"type": "Polygon", "coordinates": [[[123.860968995, 8.235820688000048], [123.83965280100006, 8.220097685000042], [123.7908163930001, 8.225963709000041], [123.74505998600011, 8.227652802000023], [123.72022952600004, 8.23982134600004], [123.70174567200003, 8.234382435000041], [123.66290596600003, 8.203467437000029], [123.66303992600002, 8.192278350000036], [123.70930671200006, 8.19396713300006], [123.76970363400005, 8.203293110000063], [123.80005790500002, 8.19956309000003], [123.81024137800011, 8.188913124000068], [123.86802019200002, 8.183468876000061], [123.860968995, 8.235820688000048]]]}, "properties": {"psgc_province": 1004200000, "psgc_municipality": 1004205000, "province": "Misamis Occidental", "municipality": "Clarin"}}, {"type": "Feature", "geometry": {"type": "Polygon", "coordinates": [[[123.63107465900008, 8.41311207900003], [123.6237132030001, 8.438646025000025], [123.55969246500003, 8.436623812000052], [123.56018094, 8.383434407000037], [123.63154787000008, 8.380902491000029], [123.63107465900008, 8.41311207900003]]]}, "properties": {"psgc_province": 1004200000, "psgc_municipality": 1004206000, "province": "Misamis Occidental", "municipality": "Concepcion"}}, {"type": "Feature", "geometry": {"type": "Polygon", "coordinates": [[[123.84520724100003, 8.349878569000055], [123.81760419400007, 8.348735597000028], [123.80032870500008, 8.354325717000052], [123.76640536800004, 8.348882415000045], [123.74332965300006, 8.35303751300006], [123.66029285500007, 8.343601887000034], [123.66058985000006, 8.32309129400005], [123.7293308620001, 8.322209057000064], [123.74721814200007, 8.304973219000033], [123.76729307500013, 8.302377599000069], [123.84453384400003, 8.318471907000058], [123.85076810400005, 8.31617369000003], [123.86303258800002, 8.323309949000075], [123.84520724100003, 8.349878569000055]]]}, "properties": {"psgc_province": 1004200000, "psgc_municipality": 1004207000, "province": "Misamis Occidental", "municipality": "Jimenez"}}, {"type": "Feature", "geometry": {"type": "Polygon", "coordinates": [[[123.74342196300006, 8.582258376000027], [123.72398435700005, 8.56132336400003], [123.66831585800004, 8.519311266000045], [123.65280723400008, 8.495664123000038], [123.653182139, 8.459312991000049], [123.64576730600004, 8.452076289000047], [123.63971720200006, 8.419084806000058], [123.63107465900008, 8.41311207900003], [123.63154787000008, 8.380902491000029], [123.65132473100005, 8.38026517000003], [123.65823834600008, 8.430057710000028], [123.68446792600002, 8.454711736000037], [123.71018082500007, 8.49808659300004], [123.7465852460001, 8.514673911000042], [123.77731803400002, 8.513196580000056], [123.7834607870001, 8.535465341000076], [123.762726401, 8.554792359000032], [123.74342196300006, 8.582258376000027]]]}, "properties": {"psgc_province": 1004200000, "psgc_municipality": 1004208000, "province": "Misamis Occidental", "municipality": "Lopez Jaena"}}, {"type": "Feature", "geometry": {"type": "Polygon", "coordinates": [[[123.77731803400002, 8.513196580000056], [123.7465852460001, 8.514673911000042], [123.71018082500007, 8.49808659300004], [123.68446792600002, 8.454711736000037], [123.65823834600008, 8.430057710000028], [123.65132473100005, 8.38026517000003], [123.659343593, 8.380321707000062], [123.72461248800005, 8.396808988000032], [123.76660565800012, 8.425230709000061], [123.77733109500004, 8.439730817000054], [123.81239226200013, 8.445130164000036], [123.81510937000006, 8.453769305000037], [123.8177966510001, 8.475291031000042], [123.77731803400002, 8.513196580000056]]]}, "properties": {"psgc_province": 1004200000, "psgc_municipality": 1004209000, "province": "Misamis Occidental", "municipality": "City of Oroquieta"}}, {"type": "Feature", "geometry": {"type": "Polygon", "coordinates": [[[123.86802019200002, 8.183468876000061], [123.81024137800011, 8.188913124000068], [123.80005790500002, 8.19956309000003], [123.76970363400005, 8.203293110000063], [123.70930671200006, 8.19396713300006], [123.66303992600002, 8.192278350000036], [123.66276525600006, 8.183198529000034], [123.68965318500011, 8.183309203000022], [123.72222846800001, 8.140988794000066], [123.73805219700012, 8.12710706900003], [123.753089465, 8.10041704400004], [123.78193439700009, 8.078550274000063], [123.79019902400012, 8.09957564700005], [123.80295484300008, 8.10554189800007], [123.838435376, 8.142206650000047], [123.86637806800002, 8.159695122000073], [123.86802019200002, 8.183468876000061]]]}, "properties": {"psgc_province": 1004200000, "psgc_municipality": 1004210000, "province": "Misamis Occidental", "municipality": "City of Ozamiz"}}, {"type": "Feature", "geometry": {"type": "Polygon", "coordinates": [[[123.84520724100003, 8.349878569000055], [123.84322080400013, 8.385349159000043], [123.78278205100004, 8.374665236000055], [123.76002076700001, 8.364285629000047], [123.69409138500009, 8.350713527000037], [123.66024762400002, 8.347482871000066], [123.66029285500007, 8.343601887000034], [123.74332965300006, 8.35303751300006], [123.76640536800004, 8.348882415000045], [123.80032870500008, 8.354325717000052], [123.81760419400007, 8.348735597000028], [123.84520724100003, 8.349878569000055]]]}, "properties": {"psgc_province": 1004200000, "psgc_municipality": 1004211000, "province": "Misamis Occidental", "municipality": "Panaon"}}, {"type": "Feature", "geometry": {"type": "Polygon", "coordinates": [[[123.74342196300006, 8.582258376000027], [123.7475014810001, 8.595565284000033], [123.7270602410001, 8.602859820000049], [123.71244413700003, 8.622072743000047], [123.68612932000009, 8.641408583000043], [123.66569842400008, 8.64523872600006], [123.65542183500008, 8.634740271000055], [123.65342204800005, 8.593112215000074], [123.66165401, 8.570910106000042], [123.66831585800004, 8.519311266000045], [123.72398435700005, 8.56132336400003], [123.74342196300006, 8.582258376000027]]]}, "properties": {"psgc_province": 1004200000, "psgc_municipality": 1004212000, "province": "Misamis Occidental", "municipality": "Plaridel"}}, {"type": "Feature", "geometry": {"type": "Polygon", "coordinates": [[[123.58714278700006, 8.627006459000029], [123.58018097700005, 8.620813506000045], [123.57600543, 8.588836525000032], [123.55660112700002, 8.596665443000063], [123.55669766900007, 8.501533075000054], [123.55969246500003, 8.436623812000052], [123.6237132030001, 8.438646025000025], [123.63263040700008, 8.462914031000025], [123.628932587, 8.506152291000037], [123.61948195400011, 8.517292641000038], [123.60529202600003, 8.555651719000021], [123.60502710600008, 8.566661823000059], [123.58608513500008, 8.61365110200006], [123.58714278700006, 8.627006459000029]]]}, "properties": {"psgc_province": 1004200000, "psgc_municipality": 1004213000, "province": "Misamis Occidental", "municipality": "Sapang Dalaga"}}, {"type": "Feature", "geometry": {"type": "Polygon", "coordinates": [[[123.85076810400005, 8.31617369000003], [123.84453384400003, 8.318471907000058], [123.76729307500013, 8.302377599000069], [123.74721814200007, 8.304973219000033], [123.7293308620001, 8.322209057000064], [123.66058985000006, 8.32309129400005], [123.66081713800008, 8.283831739000048], [123.69653908400005, 8.283613896000077], [123.70700778000003, 8.278666185000073], [123.7908302500001, 8.268306631000028], [123.83276452900007, 8.270730611000035], [123.8477472940001, 8.26685560900006], [123.85076810400005, 8.31617369000003]]]}, "properties": {"psgc_province": 1004200000, "psgc_municipality": 1004214000, "province": "Misamis Occidental", "municipality": "Sinacaban"}}, {"type": "Feature", "geometry": {"type": "Polygon", "coordinates": [[[123.78193439700009, 8.078550274000063], [123.753089465, 8.10041704400004], [123.73805219700012, 8.12710706900003], [123.72222846800001, 8.140988794000066], [123.68965318500011, 8.183309203000022], [123.66276525600006, 8.183198529000034], [123.66378290500005, 8.162059773000067], [123.59735905000004, 8.15178031000005], [123.6244549900001, 8.119127816000061], [123.632835009, 8.116626965000023], [123.64043337000011, 8.045374042000047], [123.66311061800002, 8.029588007000031], [123.69263746100012, 8.047725496000055], [123.72166107400005, 8.045442757000046], [123.75740775600002, 8.058852702000024], [123.78193439700009, 8.078550274000063]]]}, "properties": {"psgc_province": 1004200000, "psgc_municipality": 1004215000, "province": "Misamis Occidental", "municipality": "City of Tangub"}}, {"type": "Feature", "geometry": {"type": "Polygon", "coordinates": [[[123.8477472940001, 8.26685560900006], [123.83276452900007, 8.270730611000035], [123.7908302500001, 8.268306631000028], [123.70700778000003, 8.278666185000073], [123.69653908400005, 8.283613896000077], [123.66081713800008, 8.283831739000048], [123.66290596600003, 8.203467437000029], [123.70174567200003, 8.234382435000041], [123.72022952600004, 8.23982134600004], [123.74505998600011, 8.227652802000023], [123.7908163930001, 8.225963709000041], [123.83965280100006, 8.220097685000042], [123.860968995, 8.235820688000048], [123.8477472940001, 8.26685560900006]]]}, "properties": {"psgc_province": 1004200000, "psgc_municipality": 1004216000, "province": "Misamis Occidental", "municipality": "Tudela"}}, {"type": "Feature", "geometry": {"type": "Polygon", "coordinates": [[[123.63154787000008, 8.380902491000029], [123.56018094, 8.383434407000037], [123.56107968000003, 8.34535582600006], [123.56656830800011, 8.315118446000042], [123.55831622200003, 8.294802987000027], [123.55888240400009, 8.147692712000037], [123.59735905000004, 8.15178031000005], [123.66378290500005, 8.162059773000067], [123.66276525600006, 8.183198529000034], [123.66303992600002, 8.192278350000036], [123.66290596600003, 8.203467437000029], [123.66081713800008, 8.283831739000048], [123.66058985000006, 8.32309129400005], [123.66029285500007, 8.343601887000034], [123.66024762400002, 8.347482871000066], [123.659343593, 8.380321707000062], [123.65132473100005, 8.38026517000003], [123.63154787000008, 8.380902491000029]]]}, "properties": {"psgc_province": 1004200000, "psgc_municipality": 1004217000, "province": "Misamis Occidental", "municipality": "Don Victoriano Chiongbian"}}, {"type": "Feature", "geometry": {"type": "Polygon", "coordinates": [[[124.4696793400001, 8.598508383000025], [124.43684240800008, 8.545785966000038], [124.41506661700011, 8.520137878000073], [124.40076054600001, 8.494339326000045], [124.3857875860001, 8.435647495000067], [124.40355574000013, 8.398216823000041], [124.44036745200005, 8.373667037000073], [124.44755230200009, 8.435852674000046], [124.43373627100004, 8.440435036000054], [124.44286309600012, 8.486306225000021], [124.45681443000002, 8.49283106300004], [124.47059488500008, 8.526381237000065], [124.50283887500008, 8.577533388000061], [124.4696793400001, 8.598508383000025]]]}, "properties": {"psgc_province": 1004300000, "psgc_municipality": 1004301000, "province": "Misamis Oriental", "municipality": "Alubijid"}}, {"type": "Feature", "geometry": {"type": "Polygon", "coordinates": [[[124.79478972600008, 8.698483657000056], [124.87090578100005, 8.696701693000023], [124.89146635300006, 8.700828546000025], [124.92957715600005, 8.738440941000022], [124.90093541600004, 8.805433387000049], [124.831872587, 8.793286063000037], [124.80604259600011, 8.775532779000056], [124.77205810100008, 8.78710773800003], [124.763853057, 8.758848570000056], [124.77840198500009, 8.731994030000065], [124.77189034400011, 8.712065915000037], [124.74764443800007, 8.70698942600006], [124.79478972600008, 8.698483657000056]]]}, "properties": {"psgc_province": 1004300000, "psgc_municipality": 1004302000, "province": "Misamis Oriental", "municipality": "Balingasag"}}, {"type": "Feature", "geometry": {"type": "Polygon", "coordinates": [[[124.8661756250001, 9.007176088000053], [124.83473096900002, 9.004400933000056], [124.83168778400011, 8.968358413000033], [124.87906101600004, 8.88901262400003], [124.92573898700005, 8.881589499000029], [124.94022767100012, 8.917102446000058], [124.87459658000013, 8.943762380000068], [124.88329381000007, 8.967002404000027], [124.86182701400003, 8.976536173000056], [124.8661756250001, 9.007176088000053]]]}, "properties": {"psgc_province": 1004300000, "psgc_municipality": 1004303000, "province": "Misamis Oriental", "municipality": "Balingoan"}}, {"type": "Feature", "geometry": {"type": "Polygon", "coordinates": [[[124.81911137500003, 8.908583478000025], [124.80753981600004, 8.93332225900002], [124.77776964500003, 8.933010368000053], [124.78507591200002, 8.90386163200003], [124.81911137500003, 8.908583478000025]]]}, "properties": {"psgc_province": 1004300000, "psgc_municipality": 1004304000, "province": "Misamis Oriental", "municipality": "Binuangan"}}, {"type": "Feature", "geometry": {"type": "Polygon", "coordinates": [[[124.92573898700005, 8.881589499000029], [124.87906101600004, 8.88901262400003], [124.87295664100009, 8.88059961400006], [124.89414108400001, 8.823317985000072], [124.90093541600004, 8.805433387000049], [124.92957715600005, 8.738440941000022], [124.89146635300006, 8.700828546000025], [124.87090578100005, 8.696701693000023], [124.79478972600008, 8.698483657000056], [124.80510262400004, 8.628140689000078], [124.81719830800012, 8.604843713000037], [124.83307960200011, 8.561300463000064], [124.84556848500006, 8.557733292000021], [124.87082259400007, 8.583962324000026], [124.9095479680001, 8.599141823000025], [124.9577568630001, 8.598802371000035], [125.02576683100004, 8.609349439000026], [125.03110151400007, 8.590509733000033], [125.091972703, 8.583274949000044], [125.1711042160001, 8.582282192000035], [125.19338500500008, 8.619713694000042], [125.22644761300013, 8.646580223000054], [125.24017963000007, 8.668428995000054], [125.23964481000007, 8.719439959000058], [125.17362912300007, 8.68301051900005], [125.1351339370001, 8.672610330000055], [125.09005903500008, 8.672845477000067], [125.03541510700006, 8.68669074600007], [124.98307357100009, 8.714289953000046], [124.93808286900001, 8.811678011000026], [124.92573898700005, 8.881589499000029]]]}, "properties": {"psgc_province": 1004300000, "psgc_municipality": 1004306000, "province": "Misamis Oriental", "municipality": "Claveria"}}, {"type": "Feature", "geometry": {"type": "Polygon", "coordinates": [[[124.5736297310001, 8.531916280000074], [124.54349714100009, 8.540649056000063], [124.50283887500008, 8.577533388000061], [124.47059488500008, 8.526381237000065], [124.45681443000002, 8.49283106300004], [124.44286309600012, 8.486306225000021], [124.43373627100004, 8.440435036000054], [124.44755230200009, 8.435852674000046], [124.47510888200009, 8.493471484000052], [124.49247818700007, 8.481220979000057], [124.5513668110001, 8.507546003000073], [124.5736297310001, 8.531916280000074]]]}, "properties": {"psgc_province": 1004300000, "psgc_municipality": 1004307000, "province": "Misamis Oriental", "municipality": "City of El Salvador"}}, {"type": "Feature", "geometry": {"type": "Polygon", "coordinates": [[[125.25057740000011, 8.874501513000041], [125.2008443750001, 8.868854998000074], [125.18013701200003, 8.888585835000072], [125.16470603900007, 8.857571328000063], [125.1398696750001, 8.841374854000035], [125.07836957000008, 8.828634423000038], [125.06624686600003, 8.85715848500007], [125.03656284100008, 8.889997340000034], [124.93808286900001, 8.811678011000026], [124.98307357100009, 8.714289953000046], [125.03541510700006, 8.68669074600007], [125.09005903500008, 8.672845477000067], [125.1351339370001, 8.672610330000055], [125.17362912300007, 8.68301051900005], [125.23964481000007, 8.719439959000058], [125.23621368400008, 8.784649849000061], [125.24109649700007, 8.840640068000027], [125.25057740000011, 8.874501513000041]]]}, "properties": {"psgc_province": 1004300000, "psgc_municipality": 1004308000, "province": "Misamis Oriental", "municipality": "City of Gingoog"}}, {"type": "Feature", "geometry": {"type": "Polygon", "coordinates": [[[124.40945730200009, 8.599189722000064], [124.38521952100007, 8.592748829000069], [124.36017595600003, 8.568331586000056], [124.41506661700011, 8.520137878000073], [124.43684240800008, 8.545785966000038], [124.40945730200009, 8.599189722000064]]]}, "properties": {"psgc_province": 1004300000, "psgc_municipality": 1004309000, "province": "Misamis Oriental", "municipality": "Gitagum"}}, {"type": "Feature", "geometry": {"type": "Polygon", "coordinates": [[[124.40076054600001, 8.494339326000045], [124.36961224300002, 8.505719638000073], [124.32714158500005, 8.548520057000077], [124.31225759000006, 8.536184357000021], [124.30620991400006, 8.504882266000036], [124.28376576500013, 8.455032705000066], [124.3276341720001, 8.454939599000056], [124.35780192400013, 8.430720171000074], [124.3857875860001, 8.435647495000067], [124.40076054600001, 8.494339326000045]]]}, "properties": {"psgc_province": 1004300000, "psgc_municipality": 1004310000, "province": "Misamis Oriental", "municipality": "Initao"}}, {"type": "Feature", "geometry": {"type": "Polygon", "coordinates": [[[124.79478972600008, 8.698483657000056], [124.74764443800007, 8.70698942600006], [124.73887134700011, 8.673376284000026], [124.74253195700011, 8.650144054000064], [124.76219613300009, 8.642226882000044], [124.76022382400004, 8.61249224200003], [124.77009820500007, 8.59779643500002], [124.81719830800012, 8.604843713000037], [124.80510262400004, 8.628140689000078], [124.79478972600008, 8.698483657000056]]]}, "properties": {"psgc_province": 1004300000, "psgc_municipality": 1004311000, "province": "Misamis Oriental", "municipality": "Jasaan"}}, {"type": "Feature", "geometry": {"type": "Polygon", "coordinates": [[[124.83473096900002, 9.004400933000056], [124.8015558190001, 8.99713790100003], [124.7839056480001, 8.974514343000068], [124.79331087900006, 8.955492431000037], [124.83199674700006, 8.917859863000047], [124.84152320100007, 8.91795175100003], [124.87295664100009, 8.88059961400006], [124.87906101600004, 8.88901262400003], [124.83168778400011, 8.968358413000033], [124.83473096900002, 9.004400933000056]]]}, "properties": {"psgc_province": 1004300000, "psgc_municipality": 1004312000, "province": "Misamis Oriental", "municipality": "Kinoguitan"}}, {"type": "Feature", "geometry": {"type": "Polygon", "coordinates": [[[124.89414108400001, 8.823317985000072], [124.804106476, 8.828716647000018], [124.788147793, 8.83859403100007], [124.78822348800009, 8.81777744900006], [124.77205810100008, 8.78710773800003], [124.80604259600011, 8.775532779000056], [124.831872587, 8.793286063000037], [124.90093541600004, 8.805433387000049], [124.89414108400001, 8.823317985000072]]]}, "properties": {"psgc_province": 1004300000, "psgc_municipality": 1004313000, "province": "Misamis Oriental", "municipality": "Lagonglong"}}, {"type": "Feature", "geometry": {"type": "Polygon", "coordinates": [[[124.4696793400001, 8.598508383000025], [124.45720933600013, 8.624893131000022], [124.40945730200009, 8.599189722000064], [124.43684240800008, 8.545785966000038], [124.4696793400001, 8.598508383000025]]]}, "properties": {"psgc_province": 1004300000, "psgc_municipality": 1004314000, "province": "Misamis Oriental", "municipality": "Laguindingan"}}, {"type": "Feature", "geometry": {"type": "Polygon", "coordinates": [[[124.41506661700011, 8.520137878000073], [124.36017595600003, 8.568331586000056], [124.32714158500005, 8.548520057000077], [124.36961224300002, 8.505719638000073], [124.40076054600001, 8.494339326000045], [124.41506661700011, 8.520137878000073]]]}, "properties": {"psgc_province": 1004300000, "psgc_municipality": 1004315000, "province": "Misamis Oriental", "municipality": "Libertad"}}, {"type": "Feature", "geometry": {"type": "Polygon", "coordinates": [[[124.36979453600007, 8.320253657000023], [124.31398427000012, 8.356532344000076], [124.28106714100012, 8.362575413000059], [124.26272036400007, 8.377750989000049], [124.26055712900006, 8.329052708000061], [124.28643547900003, 8.330000745000062], [124.30343307400005, 8.311831809000067], [124.32793174200003, 8.327967434000069], [124.36979453600007, 8.320253657000023]]]}, "properties": {"psgc_province": 1004300000, "psgc_municipality": 1004316000, "province": "Misamis Oriental", "municipality": "Lugait"}}, {"type": "Feature", "geometry": {"type": "Polygon", "coordinates": [[[125.25057740000011, 8.874501513000041], [125.22140040500007, 8.921750022000028], [125.23122286800003, 8.944712414000037], [125.22444407900002, 8.96754260100005], [125.2381393180001, 8.987511528000027], [125.21767746800005, 9.03047378100007], [125.20772470700001, 9.093653081000067], [125.19003049100003, 9.082751125000073], [125.17151219900005, 9.011065247000035], [125.18719025900008, 8.950950840000077], [125.18013701200003, 8.888585835000072], [125.2008443750001, 8.868854998000074], [125.25057740000011, 8.874501513000041]]]}, "properties": {"psgc_province": 1004300000, "psgc_municipality": 1004317000, "province": "Misamis Oriental", "municipality": "Magsaysay"}}, {"type": "Feature", "geometry": {"type": "Polygon", "coordinates": [[[124.40355574000013, 8.398216823000041], [124.3574820460001, 8.386801829000037], [124.30714069700002, 8.398585911000055], [124.28497066900002, 8.409613100000056], [124.26272036400007, 8.377750989000049], [124.28106714100012, 8.362575413000059], [124.31398427000012, 8.356532344000076], [124.36979453600007, 8.320253657000023], [124.40285590600003, 8.315251463000038], [124.408561532, 8.333618891000071], [124.44036745200005, 8.373667037000073], [124.40355574000013, 8.398216823000041]]]}, "properties": {"psgc_province": 1004300000, "psgc_municipality": 1004318000, "province": "Misamis Oriental", "municipality": "Manticao"}}, {"type": "Feature", "geometry": {"type": "Polygon", "coordinates": [[[125.03656284100008, 8.889997340000034], [125.02419575700003, 8.919037900000035], [124.99040858500008, 8.930832249000048], [124.96732911100003, 8.953099254000053], [124.94022767100012, 8.917102446000058], [124.92573898700005, 8.881589499000029], [124.93808286900001, 8.811678011000026], [125.03656284100008, 8.889997340000034]]]}, "properties": {"psgc_province": 1004300000, "psgc_municipality": 1004319000, "province": "Misamis Oriental", "municipality": "Medina"}}, {"type": "Feature", "geometry": {"type": "Polygon", "coordinates": [[[124.3857875860001, 8.435647495000067], [124.35780192400013, 8.430720171000074], [124.3276341720001, 8.454939599000056], [124.28376576500013, 8.455032705000066], [124.28497066900002, 8.409613100000056], [124.30714069700002, 8.398585911000055], [124.3574820460001, 8.386801829000037], [124.40355574000013, 8.398216823000041], [124.3857875860001, 8.435647495000067]]]}, "properties": {"psgc_province": 1004300000, "psgc_municipality": 1004320000, "province": "Misamis Oriental", "municipality": "Naawan"}}, {"type": "Feature", "geometry": {"type": "Polygon", "coordinates": [[[124.5736297310001, 8.531916280000074], [124.5513668110001, 8.507546003000073], [124.49247818700007, 8.481220979000057], [124.47510888200009, 8.493471484000052], [124.44755230200009, 8.435852674000046], [124.44036745200005, 8.373667037000073], [124.408561532, 8.333618891000071], [124.40285590600003, 8.315251463000038], [124.44824779200009, 8.318737222000038], [124.46084668700007, 8.342523143000053], [124.47782064600007, 8.345044917000052], [124.52422690900005, 8.396880608000059], [124.5569715800001, 8.412929973000075], [124.54750243300009, 8.430518044000053], [124.56937637300007, 8.476228564000053], [124.59302237500005, 8.504618346000028], [124.5736297310001, 8.531916280000074]]]}, "properties": {"psgc_province": 1004300000, "psgc_municipality": 1004321000, "province": "Misamis Oriental", "municipality": "Opol"}}, {"type": "Feature", "geometry": {"type": "Polygon", "coordinates": [[[124.87295664100009, 8.88059961400006], [124.85297812100009, 8.885220618000062], [124.81911137500003, 8.908583478000025], [124.78507591200002, 8.90386163200003], [124.788147793, 8.83859403100007], [124.804106476, 8.828716647000018], [124.89414108400001, 8.823317985000072], [124.87295664100009, 8.88059961400006]]]}, "properties": {"psgc_province": 1004300000, "psgc_municipality": 1004322000, "province": "Misamis Oriental", "municipality": "Salay"}}, {"type": "Feature", "geometry": {"type": "Polygon", "coordinates": [[[124.7839056480001, 8.974514343000068], [124.77188966600009, 8.965366043000074], [124.77776964500003, 8.933010368000053], [124.80753981600004, 8.93332225900002], [124.81911137500003, 8.908583478000025], [124.85297812100009, 8.885220618000062], [124.87295664100009, 8.88059961400006], [124.84152320100007, 8.91795175100003], [124.83199674700006, 8.917859863000047], [124.79331087900006, 8.955492431000037], [124.7839056480001, 8.974514343000068]]]}, "properties": {"psgc_province": 1004300000, "psgc_municipality": 1004323000, "province": "Misamis Oriental", "municipality": "Sugbongcogon"}}, {"type": "Feature", "geometry": {"type": "Polygon", "coordinates": [[[124.82770362800011, 8.560884739000073], [124.80595442200001, 8.544954691000045], [124.77498624300007, 8.55968495700006], [124.7455660060001, 8.563649395000025], [124.74356281300004, 8.526872075000027], [124.75399252400008, 8.512378886000022], [124.79836067900011, 8.50683724500004], [124.8326646160001, 8.516467929000044], [124.84700197600012, 8.539345028000069], [124.82770362800011, 8.560884739000073]]]}, "properties": {"psgc_province": 1004300000, "psgc_municipality": 1004324000, "province": "Misamis Oriental", "municipality": "Tagoloan"}}, {"type": "Feature", "geometry": {"type": "Polygon", "coordinates": [[[124.96732911100003, 8.953099254000053], [124.90643206600011, 8.981717815000021], [124.8661756250001, 9.007176088000053], [124.86182701400003, 8.976536173000056], [124.88329381000007, 8.967002404000027], [124.87459658000013, 8.943762380000068], [124.94022767100012, 8.917102446000058], [124.96732911100003, 8.953099254000053]]]}, "properties": {"psgc_province": 1004300000, "psgc_municipality": 1004325000, "province": "Misamis Oriental", "municipality": "Talisayan"}}, {"type": "Feature", "geometry": {"type": "Polygon", "coordinates": [[[124.81719830800012, 8.604843713000037], [124.77009820500007, 8.59779643500002], [124.7455660060001, 8.563649395000025], [124.77498624300007, 8.55968495700006], [124.80595442200001, 8.544954691000045], [124.82770362800011, 8.560884739000073], [124.83307960200011, 8.561300463000064], [124.81719830800012, 8.604843713000037]]]}, "properties": {"psgc_province": 1004300000, "psgc_municipality": 1004326000, "province": "Misamis Oriental", "municipality": "Villanueva"}}]}