<?xml version="1.0" encoding="utf-8"?>
<gpx version="1.1" creator="PowerForm">
  <metadata>
    <farmer>
      <name>ABAO , JONEL  BEBERRENO</name>
    </farmer>
    <time>2024-08-06T18:32:39.2554428+08:00</time>
  </metadata>
  <trk>
    <name>ABAO , JONEL  BEBERRENO</name>
    <trkseg>
      <trkpt lat="9.749686233699995" lon="125.5419203667">
        <time>2024-08-06T08:38:57+08:00</time>
      </trkpt>
      <trkpt lat="9.749684814400005" lon="125.5419217124">
        <time>2024-08-06T08:39:00+08:00</time>
      </trkpt>
      <trkpt lat="9.74969409583259" lon="125.54192791127933">
        <time>2024-08-06T08:39:06+08:00</time>
      </trkpt>
      <trkpt lat="9.749700220791286" lon="125.5419216455773">
        <time>2024-08-06T08:39:09+08:00</time>
      </trkpt>
      <trkpt lat="9.749727381996946" lon="125.54189893889642">
        <time>2024-08-06T08:39:15+08:00</time>
      </trkpt>
      <trkpt lat="9.749742524833815" lon="125.54188246872867">
        <time>2024-08-06T08:39:18+08:00</time>
      </trkpt>
      <trkpt lat="9.749756323978003" lon="125.54186886239735">
        <time>2024-08-06T08:39:21+08:00</time>
      </trkpt>
      <trkpt lat="9.749783414999971" lon="125.54184568000004">
        <time>2024-08-06T08:39:27+08:00</time>
      </trkpt>
      <trkpt lat="9.74979721498526" lon="125.5418352974111">
        <time>2024-08-06T08:39:30+08:00</time>
      </trkpt>
      <trkpt lat="9.749810751259787" lon="125.5418299854159">
        <time>2024-08-06T08:39:33+08:00</time>
      </trkpt>
      <trkpt lat="9.749821256299398" lon="125.54182106532204">
        <time>2024-08-06T08:39:36+08:00</time>
      </trkpt>
      <trkpt lat="9.749842409039143" lon="125.54180463719024">
        <time>2024-08-06T08:39:42+08:00</time>
      </trkpt>
      <trkpt lat="9.749866927900076" lon="125.54177731445023">
        <time>2024-08-06T08:39:48+08:00</time>
      </trkpt>
      <trkpt lat="9.74988838117351" lon="125.5417667506178">
        <time>2024-08-06T08:39:51+08:00</time>
      </trkpt>
      <trkpt lat="9.749906430887512" lon="125.54174894412348">
        <time>2024-08-06T08:39:54+08:00</time>
      </trkpt>
      <trkpt lat="9.749941646083936" lon="125.54172216410551">
        <time>2024-08-06T08:40:00+08:00</time>
      </trkpt>
      <trkpt lat="9.749960078228971" lon="125.54171129903989">
        <time>2024-08-06T08:40:03+08:00</time>
      </trkpt>
      <trkpt lat="9.74997943677064" lon="125.54169703140822">
        <time>2024-08-06T08:40:06+08:00</time>
      </trkpt>
      <trkpt lat="9.750015581308851" lon="125.54167153633516">
        <time>2024-08-06T08:40:12+08:00</time>
      </trkpt>
      <trkpt lat="9.750049750327644" lon="125.54164940404164">
        <time>2024-08-06T08:40:18+08:00</time>
      </trkpt>
      <trkpt lat="9.750089186686111" lon="125.54162364903078">
        <time>2024-08-06T08:40:24+08:00</time>
      </trkpt>
      <trkpt lat="9.750105133534847" lon="125.54161302274225">
        <time>2024-08-06T08:40:27+08:00</time>
      </trkpt>
      <trkpt lat="9.750123834771312" lon="125.54160122849439">
        <time>2024-08-06T08:40:30+08:00</time>
      </trkpt>
      <trkpt lat="9.750165898712543" lon="125.5415721601461">
        <time>2024-08-06T08:40:36+08:00</time>
      </trkpt>
      <trkpt lat="9.750197779405203" lon="125.5415407344952">
        <time>2024-08-06T08:40:42+08:00</time>
      </trkpt>
      <trkpt lat="9.750219484629454" lon="125.54152750638939">
        <time>2024-08-06T08:40:45+08:00</time>
      </trkpt>
      <trkpt lat="9.750263159999967" lon="125.54150437000003">
        <time>2024-08-06T08:40:51+08:00</time>
      </trkpt>
      <trkpt lat="9.750272568000055" lon="125.54149346229995">
        <time>2024-08-06T08:40:54+08:00</time>
      </trkpt>
      <trkpt lat="9.750284591552035" lon="125.54148864372488">
        <time>2024-08-06T08:40:57+08:00</time>
      </trkpt>
      <trkpt lat="9.750291532871039" lon="125.54149483395706">
        <time>2024-08-06T08:41:03+08:00</time>
      </trkpt>
      <trkpt lat="9.750301449318139" lon="125.54153450318775">
        <time>2024-08-06T08:41:09+08:00</time>
      </trkpt>
      <trkpt lat="9.750300168385687" lon="125.54153346838568">
        <time>2024-08-06T08:41:12+08:00</time>
      </trkpt>
      <trkpt lat="9.7503" lon="125.5415333">
        <time>2024-08-06T08:41:15+08:00</time>
      </trkpt>
      <trkpt lat="9.7503" lon="125.54153498359999">
        <time>2024-08-06T08:41:18+08:00</time>
      </trkpt>
      <trkpt lat="9.750289472399961" lon="125.54157814780005">
        <time>2024-08-06T08:41:24+08:00</time>
      </trkpt>
      <trkpt lat="9.750284339655966" lon="125.54159272595768">
        <time>2024-08-06T08:41:27+08:00</time>
      </trkpt>
      <trkpt lat="9.750279926599998" lon="125.54161084880009">
        <time>2024-08-06T08:41:30+08:00</time>
      </trkpt>
      <trkpt lat="9.7502749" lon="125.54164873927988">
        <time>2024-08-06T08:41:36+08:00</time>
      </trkpt>
      <trkpt lat="9.750277619896135" lon="125.54166671382038">
        <time>2024-08-06T08:41:39+08:00</time>
      </trkpt>
      <trkpt lat="9.750275839822251" lon="125.5416814705573">
        <time>2024-08-06T08:41:42+08:00</time>
      </trkpt>
      <trkpt lat="9.75027019700001" lon="125.54170085199999">
        <time>2024-08-06T08:41:45+08:00</time>
      </trkpt>
      <trkpt lat="9.750264563490996" lon="125.54172601783097">
        <time>2024-08-06T08:41:48+08:00</time>
      </trkpt>
      <trkpt lat="9.750259304305414" lon="125.54177009436928">
        <time>2024-08-06T08:41:54+08:00</time>
      </trkpt>
      <trkpt lat="9.750258508108736" lon="125.54179512714568">
        <time>2024-08-06T08:41:57+08:00</time>
      </trkpt>
      <trkpt lat="9.75025130117682" lon="125.54182903710789">
        <time>2024-08-06T08:42:03+08:00</time>
      </trkpt>
      <trkpt lat="9.750249277633703" lon="125.54184439367438">
        <time>2024-08-06T08:42:06+08:00</time>
      </trkpt>
      <trkpt lat="9.75024872882723" lon="125.54185679274755">
        <time>2024-08-06T08:42:12+08:00</time>
      </trkpt>
      <trkpt lat="9.7502483" lon="125.54185506500001">
        <time>2024-08-06T08:42:18+08:00</time>
      </trkpt>
      <trkpt lat="9.750243285800046" lon="125.54186125860056">
        <time>2024-08-06T08:42:21+08:00</time>
      </trkpt>
      <trkpt lat="9.750194702942178" lon="125.54191252056906">
        <time>2024-08-06T08:42:27+08:00</time>
      </trkpt>
      <trkpt lat="9.750176709115078" lon="125.54192994057517">
        <time>2024-08-06T08:42:30+08:00</time>
      </trkpt>
      <trkpt lat="9.750146120000029" lon="125.54196263499996">
        <time>2024-08-06T08:42:36+08:00</time>
      </trkpt>
      <trkpt lat="9.750114823002347" lon="125.54199709802005">
        <time>2024-08-06T08:42:42+08:00</time>
      </trkpt>
      <trkpt lat="9.75009537645217" lon="125.54202570825495">
        <time>2024-08-06T08:42:48+08:00</time>
      </trkpt>
      <trkpt lat="9.750101430132341" lon="125.54202463666756">
        <time>2024-08-06T08:42:54+08:00</time>
      </trkpt>
      <trkpt lat="9.750106247733193" lon="125.54202274382237">
        <time>2024-08-06T08:42:57+08:00</time>
      </trkpt>
      <trkpt lat="9.750105775377733" lon="125.54207202026952">
        <time>2024-08-06T08:43:03+08:00</time>
      </trkpt>
      <trkpt lat="9.750078546056944" lon="125.54210898230379">
        <time>2024-08-06T08:43:09+08:00</time>
      </trkpt>
      <trkpt lat="9.750076963426245" lon="125.54210948746413">
        <time>2024-08-06T08:43:12+08:00</time>
      </trkpt>
      <trkpt lat="9.75007500114781" lon="125.54210670002061">
        <time>2024-08-06T08:43:18+08:00</time>
      </trkpt>
      <trkpt lat="9.750049051199912" lon="125.54212437810006">
        <time>2024-08-06T08:43:21+08:00</time>
      </trkpt>
      <trkpt lat="9.750016750638588" lon="125.54216058689018">
        <time>2024-08-06T08:43:27+08:00</time>
      </trkpt>
      <trkpt lat="9.749991348046388" lon="125.54217022671753">
        <time>2024-08-06T08:43:33+08:00</time>
      </trkpt>
      <trkpt lat="9.74998795425642" lon="125.54216548152844">
        <time>2024-08-06T08:43:36+08:00</time>
      </trkpt>
      <trkpt lat="9.749972880139271" lon="125.54215146918601">
        <time>2024-08-06T08:43:42+08:00</time>
      </trkpt>
      <trkpt lat="9.749946800094015" lon="125.54213728227045">
        <time>2024-08-06T08:43:45+08:00</time>
      </trkpt>
      <trkpt lat="9.749897958458378" lon="125.54210842408219">
        <time>2024-08-06T08:43:51+08:00</time>
      </trkpt>
      <trkpt lat="9.74986144130875" lon="125.54207833721493">
        <time>2024-08-06T08:43:57+08:00</time>
      </trkpt>
      <trkpt lat="9.749846562117611" lon="125.54206404546568">
        <time>2024-08-06T08:44:00+08:00</time>
      </trkpt>
      <trkpt lat="9.749830910569564" lon="125.54205291370234">
        <time>2024-08-06T08:44:03+08:00</time>
      </trkpt>
      <trkpt lat="9.749816823640808" lon="125.5420398777996">
        <time>2024-08-06T08:44:06+08:00</time>
      </trkpt>
      <trkpt lat="9.749806909594277" lon="125.5420263159251">
        <time>2024-08-06T08:44:09+08:00</time>
      </trkpt>
      <trkpt lat="9.749781343472257" lon="125.54200386074422">
        <time>2024-08-06T08:44:15+08:00</time>
      </trkpt>
      <trkpt lat="9.749773968699948" lon="125.54199562559997">
        <time>2024-08-06T08:44:18+08:00</time>
      </trkpt>
      <trkpt lat="9.749754292654506" lon="125.54197065322994">
        <time>2024-08-06T08:44:24+08:00</time>
      </trkpt>
      <trkpt lat="9.749740810312383" lon="125.54195665857917">
        <time>2024-08-06T08:44:27+08:00</time>
      </trkpt>
      <trkpt lat="9.749709556161227" lon="125.54194181131385">
        <time>2024-08-06T08:44:33+08:00</time>
      </trkpt>
      <trkpt lat="9.74969100064153" lon="125.54191093362995">
        <time>2024-08-06T08:44:39+08:00</time>
      </trkpt>
      <trkpt lat="9.749688469960157" lon="125.54191016996015">
        <time>2024-08-06T08:44:45+08:00</time>
      </trkpt>
      <trkpt lat="9.749688332860044" lon="125.54191003286005">
        <time>2024-08-06T08:44:47+08:00</time>
      </trkpt>
      <trkpt lat="9.749686233699995" lon="125.5419203667">
        <time>2024-08-06T08:38:57+08:00</time>
      </trkpt>
    </trkseg>
  </trk>
</gpx>